SAR-LUPE 2              
1 31797U 07030A   26168.60490612  .00028568  00000+0  50924-3 0  9999
2 31797  98.1050 273.0879 0005190 144.2285 215.9313 15.50058511 57006
SAPPHIRE                
1 39088U 13009C   26168.58014910  .00000078  00000+0  42122-4 0  9991
2 39088  98.4260 348.0266 0010088 245.3298 114.6837 14.35240676696636
PRAETORIAN SDA_602      
1 65565U 25203A   26168.60223870  .00000054  00000+0  37235-4 0  9992
2 65565  81.3030  10.3841 0005794 182.7718 177.3408 13.84342856 38757
PRAETORIAN SDA_603      
1 65566U 25203B   26168.55675973  .00000104  00000+0  83216-4 0  9998
2 65566  81.3036  10.3436 0009330 186.5077 173.5960 13.83905198 38758
PRAETORIAN SDA_604      
1 65567U 25203C   26168.50436072  .00000049  00000+0  34173-4 0  9995
2 65567  81.3053  10.8045 0005269 190.5733 169.5314 13.83047499 38726
PRAETORIAN SDA_605      
1 65568U 25203D   26168.61425203  .00000037  00000+0  22693-4 0  9993
2 65568  81.3018  10.3655 0008097 181.8190 178.2939 13.83434198 38751
PRAETORIAN SDA_606      
1 65569U 25203E   26168.30750804  .00000053  00000+0  37439-4 0  9990
2 65569  81.3055  10.8712 0005744 180.4388 179.6764 13.83407378 38708
PRAETORIAN SDA_607      
1 65570U 25203F   26168.60458221  .00000115  00000+0  92654-4 0  9992
2 65570  81.3037  10.2587 0008678 186.3707 173.7341 13.84284379 38760
PRAETORIAN SDA_608      
1 65571U 25203G   26168.50981722  .00000056  00000+0  39416-4 0  9990
2 65571  81.3006  10.5087 0005777 189.8018 170.3026 13.83816899 38732
PRAETORIAN SDA_609      
1 65572U 25203H   26168.51463138  .00000189  00000+0  15892-3 0  9996
2 65572  81.3050  10.4871 0006670 184.0206 176.0898 13.84212340 38744
PRAETORIAN SDA_610      
1 65573U 25203J   26168.05575553  .00000042  00000+0  26860-4 0  9997
2 65573  81.3007  10.8870 0006422 188.8510 171.2534 13.83851859 38674
PRAETORIAN SDA_611      
1 65574U 25203K   26168.05648491  .00000052  00000+0  36679-4 0  9990
2 65574  81.3009  11.0515 0005258 195.0394 165.0606 13.83309435 38660
PRAETORIAN SDA_612      
1 65575U 25203L   26168.55194016  .00000195  00000+0  16150-3 0  9994
2 65575  81.3030  10.1794 0008761 186.0951 174.0101 13.85039226 38766
PRAETORIAN SDA_613      
1 65576U 25203M   26168.06317969  .00000042  00000+0  27731-4 0  9994
2 65576  81.2998  11.0426 0005547 184.1730 175.9381 13.82765004 38660
PRAETORIAN SDA_614      
1 65577U 25203N   26168.61343669  .00000018  00000+0  52712-5 0  9993
2 65577  81.3013  10.1999 0007020 182.5171 177.5951 13.84777962 38775
PRAETORIAN SDA_615      
1 65578U 25203P   26168.51815886  .00000119  00000+0  95634-4 0  9999
2 65578  81.3024  10.2524 0008887 184.4229 175.6851 13.84436459 38759
PRAETORIAN SDA_616      
1 65579U 25203Q   26168.05569504  .00000163  00000+0  13810-3 0  9996
2 65579  81.3063  11.1978 0005212 192.7287 167.3738 13.83267934 38662
PRAETORIAN SDA_617      
1 65580U 25203R   26168.51131663  .00000031  00000+0  17185-4 0  9994
2 65580  81.3036  10.6078 0007273 183.1163 176.9949 13.83150060 38734
PRAETORIAN SDA_618      
1 65581U 25203S   26168.55641248  .00000202  00000+0  16883-3 0  9997
2 65581  81.3022  10.1465 0009593 186.6183 173.4849 13.84669669 38767
PRAETORIAN SDA_619      
1 65582U 25203T   26168.08646291  .00000137  00000+0  11331-3 0  9999
2 65582  81.3046  10.8789 0008077 185.6599 174.4467 13.83805873 39313
PRAETORIAN SDA_620      
1 65583U 25203U   26168.54832079  .00000128  00000+0  10559-3 0  9993
2 65583  81.3032  10.4722 0007538 180.0335 180.0822 13.83618298 38747
PRAETORIAN SDA_621      
1 65584U 25203V   26168.52206004  .00000054  00000+0  38208-4 0  9995
2 65584  81.3020  10.4146 0007372 177.6191 182.5002 13.83801297 38743
PRAETORIAN SDA_601      
1 65585U 25203W   26168.05882092  .00000083  00000+0  64631-4 0  9992
2 65585  81.3036  11.1392 0005188 195.8487 164.2508 13.83167741 38663
